PROGRESS-MS 32          
1 65586U 25204A   25318.22475630  .00013472  00000+0  24659-3 0  9996
2 65586  51.6329 283.6283 0004194  68.4296 291.7139 15.49650045   273
CYGNUS NG-23            
1 65616U 25208A   25318.22475630  .00013472  00000+0  24659-3 0  9994
2 65616  51.6329 283.6283 0004194  68.4296 291.7139 15.49650045   222
DRAGONFLY               
1 65729U 98067XH  25318.36094919  .00131042  00000+0  13930-2 0  9997
2 65729  51.6290 280.0391 0004901 125.5494 234.5957 15.63091881  8714
1998-067XJ              
1 65730U 98067XJ  25319.57163726  .00530211  00000+0  27168-2 0  9995
2 65730  51.6244 271.6030 0011405 122.8539 237.3561 15.79196039  8932
1998-067XK              
1 65731U 98067XK  25318.27721314  .00089311  00000+0  10741-2 0  9994
2 65731  51.6311 280.9837 0005591 100.5626 259.5997 15.60074493  8696
RSP-03                  
1 65732U 98067XL  25319.15163627  .00103587  00000+0  11670-2 0  9994
2 65732  51.6298 276.3206 0006427 105.1690 255.0014 15.61701998  8847
GHS-01                  
1 65733U 98067XM  25320.45340926  .00174994  00000+0  17233-2 0  9990
2 65733  51.6302 269.2651 0005809 134.1589 225.9885 15.64862461  9053
YOTSUBA-KULOVER         
1 65941U 98067XN  25318.15483772  .00071093  00000+0  10319-2 0  9996
2 65941  51.6312 283.1629 0002557  59.5120 300.6123 15.55159308  5403
BOTAN                   
1 65942U 98067XP  25318.26806544  .00099589  00000+0  13576-2 0  9993
2 65942  51.6307 282.4197 0004695  72.5108 287.6396 15.56700686  5426
E-KAGAKU-1              
1 65943U 98067XQ  25318.28293212  .00069698  00000+0  10114-2 0  9991
2 65943  51.6323 282.5192 0004274  57.2513 302.8889 15.55168737  5425
HRC MONOBLOCK CAMERA    
1 66052U 98067XR  25320.46056257  .00047687  00000+0  78325-3 0  9995
2 66052  51.6322 272.3067 0004742  77.2744 282.8775 15.51910877  4754
HTV-X1                  
1 66174U 25241A   25318.22475630  .00013472  00000+0  24659-3 0  9991
2 66174  51.6329 283.6283 0004194  68.4296 291.7139 15.49650045  1458
